start=new Date('2022-03-04T00:00:00.000Z').valueOf();
sats=[{"FILE":"3343255","BSTAR":"0.00002141100000","OBJECT_NAME":"STARLINK-2437","ECCENTRICITY":"0.00013890","MEAN_MOTION_DOT":"0.00000037","SITE":"AFETR","PERIAPSIS":"546.280","GP_ID":"197767371","TLE_LINE2":"2 48102  53.0555 256.6636 0001389  79.7084 280.4062 15.06390765 51606","MEAN_MOTION":"15.06390765","SEMIMAJOR_AXIS":"6925.377","ARG_OF_PERICENTER":"79.7084","OBJECT_ID":"2021-027L","NORAD_CAT_ID":"48102","EPOCH":"2022-03-03T19:36:07.617312","PERIOD":"95.593","CENTER_NAME":"EARTH","TIME_SYSTEM":"UTC","RA_OF_ASC_NODE":"256.6636","ELEMENT_SET_NO":"999","OBJECT_TYPE":"PAYLOAD","RCS_SIZE":"LARGE","CLASSIFICATION_TYPE":"U","EPHEMERIS_TYPE":"0","MEAN_ELEMENT_THEORY":"SGP4","REV_AT_EPOCH":"5160","MEAN_MOTION_DDOT":"0.0000000000000","INCLINATION":"53.0555","APOAPSIS":"548.204","MEAN_ANOMALY":"280.4062","TLE_LINE1":"1 48102U 21027L   22062.81675483  .00000037  00000-0  21411-4 0  9994","DECAY_DATE":null,"REF_FRAME":"TEME","LAUNCH_DATE":"2021-04-07","COUNTRY_CODE":"US"},{"SEMIMAJOR_AXIS":"6925.353","ARG_OF_PERICENTER":"74.1949","OBJECT_ID":"2021-027M","OBJECT_NAME":"STARLINK-2438","MEAN_MOTION_DOT":"-0.00001764","ECCENTRICITY":"0.00013400","FILE":"3343255","BSTAR":"-0.00009953400000","MEAN_MOTION":"15.06398589","PERIAPSIS":"546.290","SITE":"AFETR","GP_ID":"197767621","TLE_LINE2":"2 48103  53.0544 256.3246 0001340  74.1949 285.9187 15.06398589 51616","CLASSIFICATION_TYPE":"U","EPHEMERIS_TYPE":"0","RCS_SIZE":"LARGE","OBJECT_TYPE":"PAYLOAD","APOAPSIS":"548.146","MEAN_ANOMALY":"285.9187","REF_FRAME":"TEME","TLE_LINE1":"1 48103U 21027M   22062.89047493 -.00001764  00000-0 -99534-4 0  9998","DECAY_DATE":null,"LAUNCH_DATE":"2021-04-07","COUNTRY_CODE":"US","MEAN_ELEMENT_THEORY":"SGP4","REV_AT_EPOCH":"5161","MEAN_MOTION_DDOT":"0.0000000000000","INCLINATION":"53.0544","PERIOD":"95.592","CENTER_NAME":"EARTH","NORAD_CAT_ID":"48103","EPOCH":"2022-03-03T21:22:17.033952","RA_OF_ASC_NODE":"256.3246","ELEMENT_SET_NO":"999","TIME_SYSTEM":"UTC"},{"EPOCH":"2022-03-03T21:40:11.959680","NORAD_CAT_ID":"48104","CENTER_NAME":"EARTH","PERIOD":"95.593","TIME_SYSTEM":"UTC","ELEMENT_SET_NO":"999","RA_OF_ASC_NODE":"261.2919","RCS_SIZE":"LARGE","OBJECT_TYPE":"PAYLOAD","EPHEMERIS_TYPE":"0","CLASSIFICATION_TYPE":"U","INCLINATION":"53.0541","MEAN_MOTION_DDOT":"0.0000000000000","MEAN_ELEMENT_THEORY":"SGP4","REV_AT_EPOCH":"5155","TLE_LINE1":"1 48104U 21027N   22062.90291620  .00000446  00000-0  48844-4 0  9996","DECAY_DATE":null,"REF_FRAME":"TEME","LAUNCH_DATE":"2021-04-07","COUNTRY_CODE":"US","MEAN_ANOMALY":"280.1192","APOAPSIS":"548.323","BSTAR":"0.00004884400000","FILE":"3343255","MEAN_MOTION_DOT":"0.00000446","ECCENTRICITY":"0.00015720","OBJECT_NAME":"STARLINK-2439","TLE_LINE2":"2 48104  53.0541 261.2919 0001572  79.9974 280.1192 15.06393150 51559","GP_ID":"197767872","PERIAPSIS":"546.146","SITE":"AFETR","MEAN_MOTION":"15.06393150","OBJECT_ID":"2021-027N","ARG_OF_PERICENTER":"79.9974","SEMIMAJOR_AXIS":"6925.370"},{"OBJECT_ID":"2021-027P","SEMIMAJOR_AXIS":"6925.353","ARG_OF_PERICENTER":"64.2319","MEAN_MOTION":"15.06398703","GP_ID":"197768623","TLE_LINE2":"2 48105  53.0562 206.6942 0001324  64.2319 295.8806 15.06398703 52305","PERIAPSIS":"546.301","SITE":"AFETR","MEAN_MOTION_DOT":"0.00000594","ECCENTRICITY":"0.00013240","OBJECT_NAME":"STARLINK-2440","FILE":"3343255","BSTAR":"0.00005874900000","MEAN_ANOMALY":"295.8806","TLE_LINE1":"1 48105U 21027P   22062.81030247  .00000594  00000-0  58749-4 0  9992","COUNTRY_CODE":"US","DECAY_DATE":null,"LAUNCH_DATE":"2021-04-07","REF_FRAME":"TEME","APOAPSIS":"548.134","MEAN_MOTION_DDOT":"0.0000000000000","INCLINATION":"53.0562","MEAN_ELEMENT_THEORY":"SGP4","REV_AT_EPOCH":"5230","EPHEMERIS_TYPE":"0","CLASSIFICATION_TYPE":"U","OBJECT_TYPE":"PAYLOAD","RCS_SIZE":"LARGE","ELEMENT_SET_NO":"999","RA_OF_ASC_NODE":"206.6942","TIME_SYSTEM":"UTC","CENTER_NAME":"EARTH","PERIOD":"95.592","NORAD_CAT_ID":"48105","EPOCH":"2022-03-03T19:26:50.133408"},{"MEAN_MOTION_DDOT":"0.0000000000000","INCLINATION":"53.0544","REV_AT_EPOCH":"5160","MEAN_ELEMENT_THEORY":"SGP4","MEAN_ANOMALY":"275.0012","TLE_LINE1":"1 48106U 21027Q   22062.79369161  .00000593  00000-0  58695-4 0  9999","REF_FRAME":"TEME","DECAY_DATE":null,"LAUNCH_DATE":"2021-04-07","COUNTRY_CODE":"US","APOAPSIS":"548.114","OBJECT_TYPE":"PAYLOAD","RCS_SIZE":"LARGE","EPHEMERIS_TYPE":"0","CLASSIFICATION_TYPE":"U","TIME_SYSTEM":"UTC","ELEMENT_SET_NO":"999","RA_OF_ASC_NODE":"256.7662","NORAD_CAT_ID":"48106","EPOCH":"2022-03-03T19:02:54.955104","CENTER_NAME":"EARTH","PERIOD":"95.592","OBJECT_ID":"2021-027Q","SEMIMAJOR_AXIS":"6925.348","ARG_OF_PERICENTER":"85.1126","TLE_LINE2":"2 48106  53.0544 256.7662 0001301  85.1126 275.0012 15.06400143 51607","GP_ID":"197766871","PERIAPSIS":"546.312","SITE":"AFETR","MEAN_MOTION":"15.06400143","FILE":"3343255","BSTAR":"0.00005869500000","MEAN_MOTION_DOT":"0.00000593","ECCENTRICITY":"0.00013010","OBJECT_NAME":"STARLINK-2442"},{"NORAD_CAT_ID":"48107","EPOCH":"2022-03-03T19:25:30.581472","CENTER_NAME":"EARTH","PERIOD":"95.593","TIME_SYSTEM":"UTC","ELEMENT_SET_NO":"999","RA_OF_ASC_NODE":"256.6939","RCS_SIZE":"LARGE","OBJECT_TYPE":"PAYLOAD","EPHEMERIS_TYPE":"0","CLASSIFICATION_TYPE":"U","MEAN_MOTION_DDOT":"0.0000000000000","INCLINATION":"53.0545","MEAN_ELEMENT_THEORY":"SGP4","REV_AT_EPOCH":"5160","MEAN_ANOMALY":"278.5161","TLE_LINE1":"1 48107U 21027R   22062.80938173  .00001066  00000-0  90453-4 0  9991","COUNTRY_CODE":"US","DECAY_DATE":null,"LAUNCH_DATE":"2021-04-07","REF_FRAME":"TEME","APOAPSIS":"548.233","FILE":"3343255","BSTAR":"0.00009045300000","MEAN_MOTION_DOT":"0.00001066","ECCENTRICITY":"0.00014430","OBJECT_NAME":"STARLINK-2443","TLE_LINE2":"2 48107  53.0545 256.6939 0001443  81.5991 278.5161 15.06393429 51603","GP_ID":"197767121","PERIAPSIS":"546.234","SITE":"AFETR","MEAN_MOTION":"15.06393429","OBJECT_ID":"2021-027R","SEMIMAJOR_AXIS":"6925.369","ARG_OF_PERICENTER":"81.5991"},{"ELEMENT_SET_NO":"999","RA_OF_ASC_NODE":"266.5272","TIME_SYSTEM":"UTC","CENTER_NAME":"EARTH","PERIOD":"95.592","EPOCH":"2022-03-03T20:22:33.828960","NORAD_CAT_ID":"48108","COUNTRY_CODE":"US","TLE_LINE1":"1 48108U 21027S   22062.84900265  .00001478  00000-0  11810-3 0  9993","DECAY_DATE":null,"LAUNCH_DATE":"2021-04-07","REF_FRAME":"TEME","MEAN_ANOMALY":"281.9347","APOAPSIS":"548.293","INCLINATION":"53.0539","MEAN_MOTION_DDOT":"0.0000000000000","REV_AT_EPOCH":"5146","MEAN_ELEMENT_THEORY":"SGP4","EPHEMERIS_TYPE":"0","CLASSIFICATION_TYPE":"U","OBJECT_TYPE":"PAYLOAD","RCS_SIZE":"LARGE","MEAN_MOTION":"15.06403804","GP_ID":"197768373","TLE_LINE2":"2 48108  53.0539 266.5272 0001576  78.1818 281.9347 15.06403804 51461","PERIAPSIS":"546.110","SITE":"AFETR","MEAN_MOTION_DOT":"0.00001478","ECCENTRICITY":"0.00015760","OBJECT_NAME":"STARLINK-2444","BSTAR":"0.00011810000000","FILE":"3343255","OBJECT_ID":"2021-027S","SEMIMAJOR_AXIS":"6925.337","ARG_OF_PERICENTER":"78.1818"},{"SEMIMAJOR_AXIS":"6925.381","ARG_OF_PERICENTER":"77.1157","OBJECT_ID":"2021-027T","MEAN_MOTION":"15.06389352","PERIAPSIS":"546.224","SITE":"AFETR","GP_ID":"197768123","TLE_LINE2":"2 48109  53.0555 276.4603 0001476  77.1157 282.9997 15.06389352 51331","OBJECT_NAME":"STARLINK-2445","MEAN_MOTION_DOT":"0.00000039","ECCENTRICITY":"0.00014760","BSTAR":"0.00002153100000","FILE":"3343255","APOAPSIS":"548.268","TLE_LINE1":"1 48109U 21027T   22062.86283390  .00000039  00000-0  21531-4 0  9993","DECAY_DATE":null,"COUNTRY_CODE":"US","LAUNCH_DATE":"2021-04-07","REF_FRAME":"TEME","MEAN_ANOMALY":"282.9997","REV_AT_EPOCH":"5133","MEAN_ELEMENT_THEORY":"SGP4","INCLINATION":"53.0555","MEAN_MOTION_DDOT":"0.0000000000000","CLASSIFICATION_TYPE":"U","EPHEMERIS_TYPE":"0","OBJECT_TYPE":"PAYLOAD","RCS_SIZE":"LARGE","RA_OF_ASC_NODE":"276.4603","ELEMENT_SET_NO":"999","TIME_SYSTEM":"UTC","PERIOD":"95.593","CENTER_NAME":"EARTH","EPOCH":"2022-03-03T20:42:28.848960","NORAD_CAT_ID":"48109"},{"APOAPSIS":"548.350","MEAN_ANOMALY":"271.9167","TLE_LINE1":"1 48110U 21027U   22062.83794664  .00002056  00000-0  15685-3 0  9996","COUNTRY_CODE":"US","DECAY_DATE":null,"LAUNCH_DATE":"2021-04-07","REF_FRAME":"TEME","REV_AT_EPOCH":"5147","MEAN_ELEMENT_THEORY":"SGP4","MEAN_MOTION_DDOT":"0.0000000000000","INCLINATION":"53.0540","CLASSIFICATION_TYPE":"U","EPHEMERIS_TYPE":"0","OBJECT_TYPE":"PAYLOAD","RCS_SIZE":"LARGE","RA_OF_ASC_NODE":"266.5740","ELEMENT_SET_NO":"999","TIME_SYSTEM":"UTC","PERIOD":"95.592","CENTER_NAME":"EARTH","NORAD_CAT_ID":"48110","EPOCH":"2022-03-03T20:06:38.589696","ARG_OF_PERICENTER":"88.2013","SEMIMAJOR_AXIS":"6925.331","OBJECT_ID":"2021-027U","MEAN_MOTION":"15.06405819","PERIAPSIS":"546.041","SITE":"AFETR","GP_ID":"197767372","TLE_LINE2":"2 48110  53.0540 266.5740 0001667  88.2013 271.9167 15.06405819 51474","OBJECT_NAME":"STARLINK-2447","ECCENTRICITY":"0.00016670","MEAN_MOTION_DOT":"0.00002056","FILE":"3343255","BSTAR":"0.00015685000000"},{"DECAY_DATE":null,"TLE_LINE1":"1 48111U 21027V   22062.83332247  .00002105  00000-0  16021-3 0  9992","LAUNCH_DATE":"2021-04-07","COUNTRY_CODE":"US","REF_FRAME":"TEME","MEAN_ANOMALY":"277.1308","APOAPSIS":"548.180","INCLINATION":"53.0547","MEAN_MOTION_DDOT":"0.0000000000000","REV_AT_EPOCH":"5147","MEAN_ELEMENT_THEORY":"SGP4","EPHEMERIS_TYPE":"0","CLASSIFICATION_TYPE":"U","RCS_SIZE":"LARGE","OBJECT_TYPE":"PAYLOAD","ELEMENT_SET_NO":"999","RA_OF_ASC_NODE":"266.5978","TIME_SYSTEM":"UTC","CENTER_NAME":"EARTH","PERIOD":"95.593","EPOCH":"2022-03-03T19:59:59.061408","NORAD_CAT_ID":"48111","OBJECT_ID":"2021-027V","ARG_OF_PERICENTER":"82.9835","SEMIMAJOR_AXIS":"6925.375","MEAN_MOTION":"15.06391304","TLE_LINE2":"2 48111  53.0547 266.5978 0001357  82.9835 277.1308 15.06391304 51472","GP_ID":"197767622","PERIAPSIS":"546.300","SITE":"AFETR","MEAN_MOTION_DOT":"0.00002105","ECCENTRICITY":"0.00013570","OBJECT_NAME":"STARLINK-2448","BSTAR":"0.00016021000000","FILE":"3343255"}];
